start=new Date('2022-03-18T00:00:00.000Z').valueOf();
sats=[{"CENTER_NAME":"EARTH","OBJECT_TYPE":"PAYLOAD","MEAN_ELEMENT_THEORY":"SGP4","CLASSIFICATION_TYPE":"U","OBJECT_ID":"2021-044AY","DECAY_DATE":null,"INCLINATION":"53.0543","MEAN_MOTION":"15.06374868","ELEMENT_SET_NO":"999","TLE_LINE1":"1 48684U 21044AY  22076.46902476  .00017809  00000-0  12123-2 0  9992","REF_FRAME":"TEME","TIME_SYSTEM":"UTC","RCS_SIZE":"LARGE","TLE_LINE2":"2 48684  53.0543 130.3871 0001610  55.0273 305.0867 15.06374868 45168","LAUNCH_DATE":"2021-05-26","COUNTRY_CODE":"US","ARG_OF_PERICENTER":"55.0273","RA_OF_ASC_NODE":"130.3871","FILE":"3363104","MEAN_ANOMALY":"305.0867","ECCENTRICITY":"0.00016100","BSTAR":"0.00121230000000","PERIAPSIS":"546.176","SITE":"AFETR","MEAN_MOTION_DDOT":"0.0000000000000","OBJECT_NAME":"STARLINK-2741","PERIOD":"95.594","EPHEMERIS_TYPE":"0","SEMIMAJOR_AXIS":"6925.426","NORAD_CAT_ID":"48684","APOAPSIS":"548.406","MEAN_MOTION_DOT":"0.00017809","EPOCH":"2022-03-17T11:15:23.739264","GP_ID":"198968895","REV_AT_EPOCH":"4516"},{"CLASSIFICATION_TYPE":"U","MEAN_ELEMENT_THEORY":"SGP4","OBJECT_ID":"2021-044AZ","DECAY_DATE":null,"CENTER_NAME":"EARTH","OBJECT_TYPE":"PAYLOAD","TIME_SYSTEM":"UTC","RCS_SIZE":"LARGE","LAUNCH_DATE":"2021-05-26","TLE_LINE2":"2 48685  53.0541 113.3610 0001306  77.0290 314.6219 15.06373927  3609","MEAN_MOTION":"15.06373927","INCLINATION":"53.0541","REF_FRAME":"TEME","TLE_LINE1":"1 48685U 21044AZ  22076.91667824  .00036895  00000-0  24846-2 0  9999","ELEMENT_SET_NO":"999","SITE":"AFETR","OBJECT_NAME":"STARLINK-2751","MEAN_MOTION_DDOT":"0.0000000000000","RA_OF_ASC_NODE":"113.3610","COUNTRY_CODE":"US","ARG_OF_PERICENTER":"77.0290","MEAN_ANOMALY":"314.6219","FILE":"3363151","PERIAPSIS":"546.389","BSTAR":"0.00248460000000","ECCENTRICITY":"0.00013060","EPOCH":"2022-03-17T22:00:00.999936","MEAN_MOTION_DOT":"0.00036895","GP_ID":"198993300","REV_AT_EPOCH":"360","PERIOD":"95.594","EPHEMERIS_TYPE":"0","NORAD_CAT_ID":"48685","SEMIMAJOR_AXIS":"6925.428","APOAPSIS":"548.198"},{"MEAN_MOTION_DDOT":"0.0000000000000","OBJECT_NAME":"STARLINK-2629","SITE":"AFETR","ECCENTRICITY":"0.00015630","BSTAR":"0.00187640000000","PERIAPSIS":"546.169","FILE":"3363151","MEAN_ANOMALY":"134.1361","COUNTRY_CODE":"US","RA_OF_ASC_NODE":"118.3654","ARG_OF_PERICENTER":"49.9918","REV_AT_EPOCH":"360","GP_ID":"198994552","MEAN_MOTION_DOT":"0.00027769","EPOCH":"2022-03-17T22:00:00.999936","APOAPSIS":"548.334","SEMIMAJOR_AXIS":"6925.387","NORAD_CAT_ID":"48686","EPHEMERIS_TYPE":"0","PERIOD":"95.593","OBJECT_ID":"2021-044BA","DECAY_DATE":null,"MEAN_ELEMENT_THEORY":"SGP4","CLASSIFICATION_TYPE":"U","OBJECT_TYPE":"PAYLOAD","CENTER_NAME":"EARTH","TLE_LINE2":"2 48686  53.0541 118.3654 0001563  49.9918 134.1361 15.06387541  3603","LAUNCH_DATE":"2021-05-26","RCS_SIZE":"LARGE","TIME_SYSTEM":"UTC","ELEMENT_SET_NO":"999","REF_FRAME":"TEME","TLE_LINE1":"1 48686U 21044BA  22076.91667824  .00027769  00000-0  18764-2 0  9992","MEAN_MOTION":"15.06387541","INCLINATION":"53.0541"},{"OBJECT_TYPE":"PAYLOAD","CENTER_NAME":"EARTH","DECAY_DATE":null,"OBJECT_ID":"2021-044BB","CLASSIFICATION_TYPE":"U","MEAN_ELEMENT_THEORY":"SGP4","REF_FRAME":"TEME","TLE_LINE1":"1 48687U 21044BB  22076.91667824  .00037927  00000-0  25534-2 0  9993","ELEMENT_SET_NO":"999","INCLINATION":"53.0549","MEAN_MOTION":"15.06370779","LAUNCH_DATE":"2021-05-26","TLE_LINE2":"2 48687  53.0549 108.3758 0001421  56.0453 117.9272 15.06370779  3607","RCS_SIZE":"LARGE","TIME_SYSTEM":"UTC","PERIAPSIS":"546.319","BSTAR":"0.00255340000000","ECCENTRICITY":"0.00014210","MEAN_ANOMALY":"117.9272","FILE":"3363151","RA_OF_ASC_NODE":"108.3758","COUNTRY_CODE":"US","ARG_OF_PERICENTER":"56.0453","OBJECT_NAME":"STARLINK-2627","MEAN_MOTION_DDOT":"0.0000000000000","SITE":"AFETR","APOAPSIS":"548.287","SEMIMAJOR_AXIS":"6925.438","NORAD_CAT_ID":"48687","EPHEMERIS_TYPE":"0","PERIOD":"95.594","REV_AT_EPOCH":"360","GP_ID":"198994302","EPOCH":"2022-03-17T22:00:00.999936","MEAN_MOTION_DOT":"0.00037927"},{"PERIAPSIS":"546.284","BSTAR":"0.00250770000000","ECCENTRICITY":"0.00014560","MEAN_ANOMALY":"81.4419","FILE":"3363151","COUNTRY_CODE":"US","ARG_OF_PERICENTER":"72.5237","RA_OF_ASC_NODE":"108.3595","OBJECT_NAME":"STARLINK-2742","MEAN_MOTION_DDOT":"0.0000000000000","SITE":"AFETR","APOAPSIS":"548.300","SEMIMAJOR_AXIS":"6925.427","NORAD_CAT_ID":"48688","EPHEMERIS_TYPE":"0","PERIOD":"95.594","REV_AT_EPOCH":"360","GP_ID":"198993551","EPOCH":"2022-03-17T22:00:00.999936","MEAN_MOTION_DOT":"0.00037243","OBJECT_TYPE":"PAYLOAD","CENTER_NAME":"EARTH","DECAY_DATE":null,"OBJECT_ID":"2021-044BC","CLASSIFICATION_TYPE":"U","MEAN_ELEMENT_THEORY":"SGP4","REF_FRAME":"TEME","TLE_LINE1":"1 48688U 21044BC  22076.91667824  .00037243  00000-0  25077-2 0  9997","ELEMENT_SET_NO":"999","INCLINATION":"53.0535","MEAN_MOTION":"15.06374374","LAUNCH_DATE":"2021-05-26","TLE_LINE2":"2 48688  53.0535 108.3595 0001456  72.5237  81.4419 15.06374374  3606","RCS_SIZE":"LARGE","TIME_SYSTEM":"UTC"},{"GP_ID":"198993801","EPOCH":"2022-03-17T22:00:00.999936","MEAN_MOTION_DOT":"0.00033641","REV_AT_EPOCH":"358","EPHEMERIS_TYPE":"0","PERIOD":"95.645","APOAPSIS":"550.812","SEMIMAJOR_AXIS":"6927.892","NORAD_CAT_ID":"48689","SITE":"AFETR","OBJECT_NAME":"STARLINK-2617","MEAN_MOTION_DDOT":"0.0000000000000","MEAN_ANOMALY":"149.9120","FILE":"3363151","ARG_OF_PERICENTER":"61.5434","COUNTRY_CODE":"US","RA_OF_ASC_NODE":"113.1734","PERIAPSIS":"548.702","BSTAR":"0.00231770000000","ECCENTRICITY":"0.00015230","RCS_SIZE":"LARGE","TIME_SYSTEM":"UTC","LAUNCH_DATE":"2021-05-26","TLE_LINE2":"2 48689  53.0538 113.1734 0001523  61.5434 149.9120 15.05570470  3581","TLE_LINE1":"1 48689U 21044BD  22076.91667824  .00033641  00000-0  23177-2 0  9995","REF_FRAME":"TEME","ELEMENT_SET_NO":"999","MEAN_MOTION":"15.05570470","INCLINATION":"53.0538","CLASSIFICATION_TYPE":"U","MEAN_ELEMENT_THEORY":"SGP4","OBJECT_ID":"2021-044BD","DECAY_DATE":null,"CENTER_NAME":"EARTH","OBJECT_TYPE":"PAYLOAD"},{"DECAY_DATE":null,"OBJECT_ID":"2021-044BE","MEAN_ELEMENT_THEORY":"SGP4","CLASSIFICATION_TYPE":"U","OBJECT_TYPE":"PAYLOAD","CENTER_NAME":"EARTH","TLE_LINE2":"2 48690  53.0540 123.3663 0001224  64.7330  26.7164 15.06371079  3606","LAUNCH_DATE":"2021-05-26","RCS_SIZE":"LARGE","TIME_SYSTEM":"UTC","ELEMENT_SET_NO":"999","TLE_LINE1":"1 48690U 21044BE  22076.91667824  .00021211  00000-0  14397-2 0  9991","REF_FRAME":"TEME","MEAN_MOTION":"15.06371079","INCLINATION":"53.0540","MEAN_MOTION_DDOT":"0.0000000000000","OBJECT_NAME":"STARLINK-2740","SITE":"AFETR","BSTAR":"0.00143970000000","ECCENTRICITY":"0.00012240","PERIAPSIS":"546.455","FILE":"3363151","MEAN_ANOMALY":"26.7164","ARG_OF_PERICENTER":"64.7330","COUNTRY_CODE":"US","RA_OF_ASC_NODE":"123.3663","REV_AT_EPOCH":"360","GP_ID":"198994052","MEAN_MOTION_DOT":"0.00021211","EPOCH":"2022-03-17T22:00:00.999936","APOAPSIS":"548.150","NORAD_CAT_ID":"48690","SEMIMAJOR_AXIS":"6925.437","EPHEMERIS_TYPE":"0","PERIOD":"95.594"},{"SEMIMAJOR_AXIS":"6925.385","NORAD_CAT_ID":"48691","APOAPSIS":"548.388","PERIOD":"95.593","EPHEMERIS_TYPE":"0","REV_AT_EPOCH":"360","MEAN_MOTION_DOT":"0.00029339","EPOCH":"2022-03-17T22:00:00.999936","GP_ID":"198994803","ECCENTRICITY":"0.00016440","BSTAR":"0.00198100000000","PERIAPSIS":"546.111","COUNTRY_CODE":"US","ARG_OF_PERICENTER":"51.5248","RA_OF_ASC_NODE":"118.3435","FILE":"3363151","MEAN_ANOMALY":"187.4983","MEAN_MOTION_DDOT":"0.0000000000000","OBJECT_NAME":"STARLINK-2750","SITE":"AFETR","MEAN_MOTION":"15.06388193","INCLINATION":"53.0604","ELEMENT_SET_NO":"999","TLE_LINE1":"1 48691U 21044BF  22076.91667824  .00029339  00000-0  19810-2 0  9996","REF_FRAME":"TEME","TLE_LINE2":"2 48691  53.0604 118.3435 0001644  51.5248 187.4983 15.06388193  3606","LAUNCH_DATE":"2021-05-26","TIME_SYSTEM":"UTC","RCS_SIZE":"LARGE","OBJECT_TYPE":"PAYLOAD","CENTER_NAME":"EARTH","OBJECT_ID":"2021-044BF","DECAY_DATE":null,"MEAN_ELEMENT_THEORY":"SGP4","CLASSIFICATION_TYPE":"U"},{"APOAPSIS":"548.294","SEMIMAJOR_AXIS":"6925.388","NORAD_CAT_ID":"48692","EPHEMERIS_TYPE":"0","PERIOD":"95.593","REV_AT_EPOCH":"360","GP_ID":"198993051","MEAN_MOTION_DOT":"0.00030824","EPOCH":"2022-03-17T22:00:00.999936","BSTAR":"0.00207990000000","ECCENTRICITY":"0.00015030","PERIAPSIS":"546.212","FILE":"3363151","MEAN_ANOMALY":"304.8636","ARG_OF_PERICENTER":"79.3494","COUNTRY_CODE":"US","RA_OF_ASC_NODE":"118.3702","MEAN_MOTION_DDOT":"0.0000000000000","OBJECT_NAME":"STARLINK-2752","SITE":"AFETR","ELEMENT_SET_NO":"999","TLE_LINE1":"1 48692U 21044BG  22076.91667824  .00030824  00000-0  20799-2 0  9996","REF_FRAME":"TEME","INCLINATION":"53.0544","MEAN_MOTION":"15.06387126","TLE_LINE2":"2 48692  53.0544 118.3702 0001503  79.3494 304.8636 15.06387126  3607","LAUNCH_DATE":"2021-05-26","RCS_SIZE":"LARGE","TIME_SYSTEM":"UTC","OBJECT_TYPE":"PAYLOAD","CENTER_NAME":"EARTH","DECAY_DATE":null,"OBJECT_ID":"2021-044BG","MEAN_ELEMENT_THEORY":"SGP4","CLASSIFICATION_TYPE":"U"},{"PERIOD":"95.593","EPHEMERIS_TYPE":"0","NORAD_CAT_ID":"48693","SEMIMAJOR_AXIS":"6925.400","APOAPSIS":"548.176","EPOCH":"2022-03-17T22:00:00.999936","MEAN_MOTION_DOT":"0.00023854","GP_ID":"198993301","REV_AT_EPOCH":"358","ARG_OF_PERICENTER":"58.1917","COUNTRY_CODE":"US","RA_OF_ASC_NODE":"123.3699","MEAN_ANOMALY":"218.4752","FILE":"3363151","PERIAPSIS":"546.354","ECCENTRICITY":"0.00013150","BSTAR":"0.00161560000000","SITE":"AFETR","OBJECT_NAME":"STARLINK-2618","MEAN_MOTION_DDOT":"0.0000000000000","INCLINATION":"53.0547","MEAN_MOTION":"15.06383254","REF_FRAME":"TEME","TLE_LINE1":"1 48693U 21044BH  22076.91667824  .00023854  00000-0  16156-2 0  9994","ELEMENT_SET_NO":"999","TIME_SYSTEM":"UTC","RCS_SIZE":"LARGE","LAUNCH_DATE":"2021-05-26","TLE_LINE2":"2 48693  53.0547 123.3699 0001315  58.1917 218.4752 15.06383254  3582","CENTER_NAME":"EARTH","OBJECT_TYPE":"PAYLOAD","CLASSIFICATION_TYPE":"U","MEAN_ELEMENT_THEORY":"SGP4","OBJECT_ID":"2021-044BH","DECAY_DATE":null}];
